OBJECT_NAME,OBJECT_ID,EPOCH,MEAN_MOTION,ECCENTRICITY,INCLINATION,RA_OF_ASC_NODE,ARG_OF_PERICENTER,MEAN_ANOMALY,EPHEMERIS_TYPE,CLASSIFICATION_TYPE,NORAD_CAT_ID,ELEMENT_SET_NO,REV_AT_EPOCH,BSTAR,MEAN_MOTION_DOT,MEAN_MOTION_DDOT
QIANFAN-238,2026-155V,2026-07-19T13:41:59.394048,14.26786323,.00305736,89.0063,60.4474,208.7928,151.1580,0,U,69867,999,200,.67165857E-4,.178E-5,0
STARLINK-37886,2026-157A,2026-07-19T14:00:01.999872,15.80886373,.00012108,53.1595,273.8410,65.8996,180.3506,0,U,69943,999,286,-.14446736E-3,-.29134E-3,0
STARLINK-37937,2026-157B,2026-07-19T14:00:01.999872,15.80849679,.00013043,53.1630,273.8223,53.9379,201.4086,0,U,69944,999,286,.11097631E-3,.21234E-3,0
STARLINK-37903,2026-157C,2026-07-19T14:00:01.999872,15.80883022,.00011217,53.1595,273.8127,78.3038,181.5509,0,U,69945,999,286,-.11931985E-3,-.24194E-3,0
STARLINK-37905,2026-157D,2026-07-19T14:00:01.999872,15.80890422,.00007865,53.1596,273.7728,69.0448,210.0956,0,U,69946,999,286,-.17993851E-3,-.36091E-3,0
STARLINK-37904,2026-157E,2026-07-19T14:00:01.999872,15.80828266,.00007408,53.1594,273.7647,84.7134,198.4107,0,U,69947,999,286,-.91237738E-4,-.18628E-3,0
STARLINK-37891,2026-157F,2026-07-19T14:00:01.999872,15.80883720,.00010113,53.1594,273.7559,73.0906,214.2444,0,U,69948,999,286,-.61455046E-4,-.12816E-3,0
STARLINK-37923,2026-157G,2026-07-19T14:00:01.999872,15.80890016,.0001082,53.1594,273.7201,70.7267,233.7120,0,U,69949,999,286,-.14389837E-3,-.29026E-3,0
STARLINK-37895,2026-157H,2026-07-19T14:00:01.999872,15.80891292,.0001195,53.1594,273.7046,71.3475,240.5524,0,U,69950,999,286,-.19711258E-3,-.39458E-3,0
STARLINK-37841,2026-157J,2026-07-19T14:00:01.999872,15.80884016,.00012087,53.1595,273.6810,75.2075,248.1162,0,U,69951,999,286,-.1671774E-3,-.33583E-3,0
STARLINK-37899,2026-157K,2026-07-19T14:00:01.999872,15.80891254,.00009668,53.1594,273.6580,71.7466,262.7238,0,U,69952,999,286,-.15176584E-3,-.30571E-3,0
STARLINK-37900,2026-157L,2026-07-19T14:00:01.999872,15.80880157,.00014094,53.1594,273.6500,80.9546,257.3562,0,U,69953,999,286,-.854887E-4,-.17544E-3,0
STARLINK-37882,2026-157M,2026-07-19T14:00:01.999872,15.80859093,.00012469,53.1620,273.6271,63.9854,285.1395,0,U,69954,999,286,.14159763E-3,.27318E-3,0
STARLINK-37928,2026-157N,2026-07-19T14:00:01.999872,15.80867204,.00012176,53.1620,273.6258,56.9508,292.8521,0,U,69955,999,286,.10290842E-3,.19652E-3,0
STARLINK-37824,2026-157P,2026-07-19T14:00:01.999872,15.80970374,.0001474,53.1593,273.6233,92.8985,258.2662,0,U,69956,999,286,-.53103419E-3,-.104721E-2,0
STARLINK-37919,2026-157Q,2026-07-19T14:00:01.999872,15.80861562,.00008917,53.1620,273.6208,66.1537,286.0550,0,U,69957,999,286,.14506019E-3,.28009E-3,0
STARLINK-37964,2026-157R,2026-07-19T14:00:01.999872,15.80919207,.00003202,53.1620,273.6075,73.1724,285.4811,0,U,69958,999,286,-.24950385E-3,-.4976E-3,0
STARLINK-37907,2026-157S,2026-07-19T14:00:01.999872,15.80890800,.00013903,53.1594,273.5869,57.3860,311.3675,0,U,69959,999,286,-.10440364E-3,-.21272E-3,0
STARLINK-37901,2026-157T,2026-07-19T14:00:01.999872,15.80865268,.00009443,53.1619,273.5730,51.6881,323.6901,0,U,69960,999,286,.15214023E-3,.2942E-3,0
STARLINK-37910,2026-157U,2026-07-19T14:00:01.999872,15.80865301,.00010863,53.1618,273.5542,48.3238,336.1171,0,U,69961,999,286,.17008372E-3,.32986E-3,0
STARLINK-37925,2026-157V,2026-07-19T14:00:01.999872,15.80874259,.00011131,53.1618,273.5501,30.1491,356.2701,0,U,69962,999,286,.9286872E-4,.17669E-3,0
STARLINK-37931,2026-157W,2026-07-19T14:00:01.999872,15.80886775,.00007297,53.1619,273.5433,42.4215,347.2554,0,U,69963,999,286,-.54421219E-4,-.11431E-3,0
STARLINK-37914,2026-157X,2026-07-19T14:00:01.999872,15.80868160,.00012966,53.1617,273.5085,66.4326,339.8020,0,U,69964,999,286,.13608433E-3,.26235E-3,0
STARLINK-37840,2026-157Y,2026-07-19T14:00:01.999872,15.80888241,.00006024,53.1590,273.4741,55.9452,7.1335,0,U,69965,999,286,.1023171E-4,.1323E-4,0
STARLINK-37894,2026-157Z,2026-07-19T14:00:01.999872,15.80878675,.00013688,53.1591,273.4882,70.3714,345.9282,0,U,69966,999,286,.4666423E-4,.8522E-4,0
STARLINK-37875,2026-157AA,2026-07-19T14:00:01.999872,15.80851207,.00009674,53.1588,273.4667,61.2744,5.1901,0,U,69967,999,286,.14491815E-3,.27967E-3,0
STARLINK-36218,2026-157AB,2026-07-19T14:00:01.999872,15.80870642,.0001391,53.1592,273.4390,69.6248,9.8870,0,U,69968,999,251,.18559243E-4,.2964E-4,0
STARLINK-37921,2026-157AC,2026-07-19T14:00:01.999872,15.80868842,.00012941,53.1592,273.4020,64.3016,33.1861,0,U,69969,999,286,-.10893634E-3,-.22141E-3,0
STARLINK-37896,2026-157AD,2026-07-19T14:00:01.999872,15.80828167,.000142,53.1590,273.3999,104.0173,354.5262,0,U,69970,999,286,.40084882E-3,.78978E-3,0
