QIANFAN-238             
1 69867U 26155V   26200.57082632  .00000178  00000+0  67166-4 0  9993
2 69867  89.0063  60.4474 0030573 208.7928 151.1580 14.26786323  2008
STARLINK-37886          
1 69943U 26157A   26200.58335648 -.00029134  00000+0 -14447-3 0  9997
2 69943  53.1595 273.8410 0001210  65.8996 180.3506 15.80886373  2861
STARLINK-37937          
1 69944U 26157B   26200.58335648  .00021234  00000+0  11098-3 0  9998
2 69944  53.1630 273.8223 0001304  53.9379 201.4086 15.80849679  2867
STARLINK-37903          
1 69945U 26157C   26200.58335648 -.00024194  00000+0 -11932-3 0  9996
2 69945  53.1595 273.8127 0001121  78.3038 181.5509 15.80883022  2869
STARLINK-37905          
1 69946U 26157D   26200.58335648 -.00036091  00000+0 -17994-3 0  9990
2 69946  53.1596 273.7728 0000786  69.0448 210.0956 15.80890422  2861
STARLINK-37904          
1 69947U 26157E   26200.58335648 -.00018628  00000+0 -91238-4 0  9991
2 69947  53.1594 273.7647 0000740  84.7134 198.4107 15.80828266  2860
STARLINK-37891          
1 69948U 26157F   26200.58335648 -.00012816  00000+0 -61455-4 0  9993
2 69948  53.1594 273.7559 0001011  73.0906 214.2444 15.80883720  2860
STARLINK-37923          
1 69949U 26157G   26200.58335648 -.00029026  00000+0 -14390-3 0  9990
2 69949  53.1594 273.7201 0001082  70.7267 233.7120 15.80890016  2860
STARLINK-37895          
1 69950U 26157H   26200.58335648 -.00039458  00000+0 -19711-3 0  9994
2 69950  53.1594 273.7046 0001195  71.3475 240.5524 15.80891292  2863
STARLINK-37841          
1 69951U 26157J   26200.58335648 -.00033583  00000+0 -16718-3 0  9992
2 69951  53.1595 273.6810 0001208  75.2075 248.1162 15.80884016  2865
STARLINK-37899          
1 69952U 26157K   26200.58335648 -.00030571  00000+0 -15177-3 0  9995
2 69952  53.1594 273.6580 0000966  71.7466 262.7238 15.80891254  2862
STARLINK-37900          
1 69953U 26157L   26200.58335648 -.00017544  00000+0 -85489-4 0  9995
2 69953  53.1594 273.6500 0001409  80.9546 257.3562 15.80880157  2869
STARLINK-37882          
1 69954U 26157M   26200.58335648  .00027318  00000+0  14160-3 0  9991
2 69954  53.1620 273.6271 0001246  63.9854 285.1395 15.80859093  2865
STARLINK-37928          
1 69955U 26157N   26200.58335648  .00019652  00000+0  10291-3 0  9995
2 69955  53.1620 273.6258 0001217  56.9508 292.8521 15.80867204  2866
STARLINK-37824          
1 69956U 26157P   26200.58335648 -.00104721  00000+0 -53103-3 0  9999
2 69956  53.1593 273.6233 0001474  92.8985 258.2662 15.80970374  2867
STARLINK-37919          
1 69957U 26157Q   26200.58335648  .00028009  00000+0  14506-3 0  9996
2 69957  53.1620 273.6208 0000891  66.1537 286.0550 15.80861562  2863
STARLINK-37964          
1 69958U 26157R   26200.58335648 -.00049760  00000+0 -24950-3 0  9990
2 69958  53.1620 273.6075 0000320  73.1724 285.4811 15.80919207  2862
STARLINK-37907          
1 69959U 26157S   26200.58335648 -.00021272  00000+0 -10440-3 0  9998
2 69959  53.1594 273.5869 0001390  57.3860 311.3675 15.80890800  2860
STARLINK-37901          
1 69960U 26157T   26200.58335648  .00029420  00000+0  15214-3 0  9995
2 69960  53.1619 273.5730 0000944  51.6881 323.6901 15.80865268  2869
STARLINK-37910          
1 69961U 26157U   26200.58335648  .00032986  00000+0  17008-3 0  9990
2 69961  53.1618 273.5542 0001086  48.3238 336.1171 15.80865301  2863
STARLINK-37925          
1 69962U 26157V   26200.58335648  .00017669  00000+0  92869-4 0  9991
2 69962  53.1618 273.5501 0001113  30.1491 356.2701 15.80874259  2864
STARLINK-37931          
1 69963U 26157W   26200.58335648 -.00011431  00000+0 -54421-4 0  9997
2 69963  53.1619 273.5433 0000729  42.4215 347.2554 15.80886775  2864
STARLINK-37914          
1 69964U 26157X   26200.58335648  .00026235  00000+0  13608-3 0  9995
2 69964  53.1617 273.5085 0001296  66.4326 339.8020 15.80868160  2868
STARLINK-37840          
1 69965U 26157Y   26200.58335648  .00001323  00000+0  10232-4 0  9998
2 69965  53.1590 273.4741 0000602  55.9452   7.1335 15.80888241  2866
STARLINK-37894          
1 69966U 26157Z   26200.58335648  .00008522  00000+0  46664-4 0  9995
2 69966  53.1591 273.4882 0001368  70.3714 345.9282 15.80878675  2860
STARLINK-37875          
1 69967U 26157AA  26200.58335648  .00027967  00000+0  14492-3 0  9993
2 69967  53.1588 273.4667 0000967  61.2744   5.1901 15.80851207  2869
STARLINK-36218          
1 69968U 26157AB  26200.58335648  .00002964  00000+0  18559-4 0  9993
2 69968  53.1592 273.4390 0001391  69.6248   9.8870 15.80870642  2513
STARLINK-37921          
1 69969U 26157AC  26200.58335648 -.00022141  00000+0 -10894-3 0  9998
2 69969  53.1592 273.4020 0001294  64.3016  33.1861 15.80868842  2868
STARLINK-37896          
1 69970U 26157AD  26200.58335648  .00078978  00000+0  40085-3 0  9992
2 69970  53.1590 273.3999 0001420 104.0173 354.5262 15.80828167  2860
